[Satellite]
VERSION=1.1
NAME=GSAT-8 (GAGAN/PRN 127)
NICKNAME=GSAT-8 (GAGAN/PRN 127)
TLE1=1 37605U 11022A   17186.12525365  .00000080  00000-0  00000-0 0  9997
TLE2=2 37605   0.0218  94.6763 0002492 195.0392  93.7369  1.00272760 22461
